[{"OBJECT_NAME":"STARLINK-3327","OBJECT_ID":"2022-001S","EPOCH":"2026-03-09T12:05:46.759488","MEAN_MOTION":15.08832182,"ECCENTRICITY":0.00011989,"INCLINATION":53.2163,"RA_OF_ASC_NODE":169.9554,"ARG_OF_PERICENTER":79.0634,"MEAN_ANOMALY":281.0493,"EPHEMERIS_TYPE":0,"CLASSIFICATION_TYPE":"U","NORAD_CAT_ID":50819,"ELEMENT_SET_NO":999,"REV_AT_EPOCH":23038,"BSTAR":-5.7204801e-5,"MEAN_MOTION_DOT":-1.198e-5,"MEAN_MOTION_DDOT":0},{"OBJECT_NAME":"OBJECT J","OBJECT_ID":"2017-042J","EPOCH":"2026-03-09T23:17:19.167936","MEAN_MOTION":15.08203331,"ECCENTRICITY":0.00078186,"INCLINATION":97.4246,"RA_OF_ASC_NODE":235.0467,"ARG_OF_PERICENTER":81.5059,"MEAN_ANOMALY":278.7055,"EPHEMERIS_TYPE":0,"CLASSIFICATION_TYPE":"U","NORAD_CAT_ID":42833,"ELEMENT_SET_NO":999,"REV_AT_EPOCH":47205,"BSTAR":0.00039182004,"MEAN_MOTION_DOT":6.006e-5,"MEAN_MOTION_DDOT":0}]
